STARLINK-1494           
1 45760U 20038AG  26068.49716211  .00096828  00000+0  67102-3 0  9999
2 45760  53.0480 152.5788 0005412   2.9213 357.1836 15.73709706317367
STARLINK-36585          
1 67540U 26014J   26068.65105201  .00143992  00000+0  94964-3 0  9999
2 67540  97.2841 313.5237 0002073  24.2198 335.9165 15.75199540  8564
